{"type":"FeatureCollection","features":[{"type":"Feature","geometry":{"type":"Polygon","coordinates":[[[2341,2568],[2327,2571],[2328,2566],[2331,2561],[2341,2564],[2346,2564],[2341,2568]]]},"properties":{"featurecla":"Admin-0 country","scalerank":4,"labelrank":2,"sovereignt":"Chile","sov_a3":"CHL","adm0_dif":0,"level":2,"type":"Sovereign country","tlc":"1","admin":"Chile","adm0_a3":"CHL","geou_dif":0,"geounit":"Chile","gu_a3":"CHL","su_dif":0,"subunit":"Chile","su_a3":"CHL","brk_diff":0,"name":"Chile","name_long":"Chile","brk_a3":"CHL","brk_name":"Chile","brk_group":null,"abbrev":"Chile","postal":"CL","formal_en":"Republic of Chile","formal_fr":null,"name_ciawf":"Chile","note_adm0":null,"note_brk":null,"name_sort":"Chile","name_alt":null,"mapcolor7":5,"mapcolor8":1,"mapcolor9":5,"mapcolor13":9,"pop_est":18952038,"pop_rank":14,"pop_year":2019,"gdp_md":282318,"gdp_year":2019,"economy":"5. Emerging region: G20","income_grp":"3. Upper middle income","fips_10":"CI","iso_a2":"CL","iso_a2_eh":"CL","iso_a3":"CHL","iso_a3_eh":"CHL","iso_n3":"152","iso_n3_eh":"152","un_a3":"152","wb_a2":"CL","wb_a3":"CHL","woe_id":23424782,"woe_id_eh":23424782,"woe_note":"Exact WOE match as country","adm0_iso":"CHL","adm0_diff":null,"adm0_tlc":"CHL","adm0_a3_us":"CHL","adm0_a3_fr":"CHL","adm0_a3_ru":"CHL","adm0_a3_es":"CHL","adm0_a3_cn":"CHL","adm0_a3_tw":"CHL","adm0_a3_in":"CHL","adm0_a3_np":"CHL","adm0_a3_pk":"CHL","adm0_a3_de":"CHL","adm0_a3_gb":"CHL","adm0_a3_br":"CHL","adm0_a3_il":"CHL","adm0_a3_ps":"CHL","adm0_a3_sa":"CHL","adm0_a3_eg":"CHL","adm0_a3_ma":"CHL","adm0_a3_pt":"CHL","adm0_a3_ar":"CHL","adm0_a3_jp":"CHL","adm0_a3_ko":"CHL","adm0_a3_vn":"CHL","adm0_a3_tr":"CHL","adm0_a3_id":"CHL","adm0_a3_pl":"CHL","adm0_a3_gr":"CHL","adm0_a3_it":"CHL","adm0_a3_nl":"CHL","adm0_a3_se":"CHL","adm0_a3_bd":"CHL","adm0_a3_ua":"CHL","adm0_a3_un":-99,"adm0_a3_wb":-99,"continent":"South America","region_un":"Americas","subregion":"South America","region_wb":"Latin America & Caribbean","name_len":5,"long_len":5,"abbrev_len":5,"tiny":-99,"homepart":1,"min_zoom":0,"min_label":1.7,"max_label":6.7,"label_x":-72.318871,"label_y":-38.151771,"ne_id":1159320493,"wikidataid":"Q298","name_ar":"تشيلي","name_bn":"চিলি","name_de":"Chile","name_en":"Chile","name_es":"Chile","name_fa":"شیلی","name_fr":"Chili","name_el":"Χιλή","name_he":"צ'ילה","name_hi":"चिली","name_hu":"Chile","name_id":"Chili","name_it":"Cile","name_ja":"チリ","name_ko":"칠레","name_nl":"Chili","name_pl":"Chile","name_pt":"Chile","name_ru":"Чили","name_sv":"Chile","name_tr":"Şili","name_uk":"Чилі","name_ur":"چلی","name_vi":"Chile","name_zh":"智利","name_zht":"智利","fclass_iso":"Admin-0 country","tlc_diff":null,"fclass_tlc":"Admin-0 country","fclass_us":null,"fclass_fr":null,"fclass_ru":null,"fclass_es":null,"fclass_cn":null,"fclass_tw":null,"fclass_in":null,"fclass_np":null,"fclass_pk":null,"fclass_de":null,"fclass_gb":null,"fclass_br":null,"fclass_il":null,"fclass_ps":null,"fclass_sa":null,"fclass_eg":null,"fclass_ma":null,"fclass_pt":null,"fclass_ar":null,"fclass_jp":null,"fclass_ko":null,"fclass_vn":null,"fclass_tr":null,"fclass_id":null,"fclass_pl":null,"fclass_gr":null,"fclass_it":null,"fclass_nl":null,"fclass_se":null,"fclass_bd":null,"fclass_ua":null,"filename":"CHL.geojson"}},{"type":"Feature","geometry":{"type":"Polygon","coordinates":[[[4066,70],[4061,70],[4047,62],[4048,53],[4053,47],[4071,44],[4079,50],[4078,60],[4072,68],[4067,69],[4066,70]],[[4149,83],[4138,87],[4134,85],[4132,83],[4132,81],[4138,75],[4143,72],[4149,66],[4158,62],[4160,63],[4160,72],[4154,75],[4149,83]],[[3966,42],[3957,44],[3949,40],[3946,36],[3945,28],[3946,26],[3963,23],[3969,29],[3969,38],[3966,42]],[[4057,122],[4054,122],[4049,118],[4053,111],[4057,113],[4060,115],[4061,118],[4057,122]],[[3980,-2],[3986,4],[3989,20],[4007,38],[4009,48],[4008,52],[4009,54],[4017,61],[4023,68],[4014,86],[3993,93],[3971,93],[3967,91],[3961,84],[3960,78],[3963,73],[3975,64],[3992,57],[3994,51],[3987,45],[3982,34],[3971,26],[3966,2],[3962,1],[3955,4],[3951,1],[3951,0],[3959,-6],[3960,-10],[3972,-11],[3977,-8],[3980,-2]],[[4044,30],[4040,33],[4022,30],[4017,25],[4021,17],[4025,15],[4035,17],[4046,25],[4044,30]]]},"properties":{"featurecla":"Admin-0 country","scalerank":1,"labelrank":3,"sovereignt":"Ecuador","sov_a3":"ECU","adm0_dif":0,"level":2,"type":"Sovereign country","tlc":"1","admin":"Ecuador","adm0_a3":"ECU","geou_dif":0,"geounit":"Ecuador","gu_a3":"ECU","su_dif":0,"subunit":"Ecuador","su_a3":"ECU","brk_diff":0,"name":"Ecuador","name_long":"Ecuador","brk_a3":"ECU","brk_name":"Ecuador","brk_group":null,"abbrev":"Ecu.","postal":"EC","formal_en":"Republic of Ecuador","formal_fr":null,"name_ciawf":"Ecuador","note_adm0":null,"note_brk":null,"name_sort":"Ecuador","name_alt":null,"mapcolor7":1,"mapcolor8":5,"mapcolor9":2,"mapcolor13":12,"pop_est":17373662,"pop_rank":14,"pop_year":2019,"gdp_md":107435,"gdp_year":2019,"economy":"6. Developing region","income_grp":"3. Upper middle income","fips_10":"EC","iso_a2":"EC","iso_a2_eh":"EC","iso_a3":"ECU","iso_a3_eh":"ECU","iso_n3":"218","iso_n3_eh":"218","un_a3":"218","wb_a2":"EC","wb_a3":"ECU","woe_id":23424801,"woe_id_eh":23424801,"woe_note":"Exact WOE match as country","adm0_iso":"ECU","adm0_diff":null,"adm0_tlc":"ECU","adm0_a3_us":"ECU","adm0_a3_fr":"ECU","adm0_a3_ru":"ECU","adm0_a3_es":"ECU","adm0_a3_cn":"ECU","adm0_a3_tw":"ECU","adm0_a3_in":"ECU","adm0_a3_np":"ECU","adm0_a3_pk":"ECU","adm0_a3_de":"ECU","adm0_a3_gb":"ECU","adm0_a3_br":"ECU","adm0_a3_il":"ECU","adm0_a3_ps":"ECU","adm0_a3_sa":"ECU","adm0_a3_eg":"ECU","adm0_a3_ma":"ECU","adm0_a3_pt":"ECU","adm0_a3_ar":"ECU","adm0_a3_jp":"ECU","adm0_a3_ko":"ECU","adm0_a3_vn":"ECU","adm0_a3_tr":"ECU","adm0_a3_id":"ECU","adm0_a3_pl":"ECU","adm0_a3_gr":"ECU","adm0_a3_it":"ECU","adm0_a3_nl":"ECU","adm0_a3_se":"ECU","adm0_a3_bd":"ECU","adm0_a3_ua":"ECU","adm0_a3_un":-99,"adm0_a3_wb":-99,"continent":"South America","region_un":"Americas","subregion":"South America","region_wb":"Latin America & Caribbean","name_len":7,"long_len":7,"abbrev_len":4,"tiny":-99,"homepart":1,"min_zoom":0,"min_label":3,"max_label":8,"label_x":-78.188375,"label_y":-1.259076,"ne_id":1159320567,"wikidataid":"Q736","name_ar":"الإكوادور","name_bn":"ইকুয়েডর","name_de":"Ecuador","name_en":"Ecuador","name_es":"Ecuador","name_fa":"اکوادور","name_fr":"Équateur","name_el":"Εκουαδόρ","name_he":"אקוודור","name_hi":"ईक्वाडोर","name_hu":"Ecuador","name_id":"Ekuador","name_it":"Ecuador","name_ja":"エクアドル","name_ko":"에콰도르","name_nl":"Ecuador","name_pl":"Ekwador","name_pt":"Equador","name_ru":"Эквадор","name_sv":"Ecuador","name_tr":"Ekvador","name_uk":"Еквадор","name_ur":"ایکواڈور","name_vi":"Ecuador","name_zh":"厄瓜多尔","name_zht":"厄瓜多爾","fclass_iso":"Admin-0 country","tlc_diff":null,"fclass_tlc":"Admin-0 country","fclass_us":null,"fclass_fr":null,"fclass_ru":null,"fclass_es":null,"fclass_cn":null,"fclass_tw":null,"fclass_in":null,"fclass_np":null,"fclass_pk":null,"fclass_de":null,"fclass_gb":null,"fclass_br":null,"fclass_il":null,"fclass_ps":null,"fclass_sa":null,"fclass_eg":null,"fclass_ma":null,"fclass_pt":null,"fclass_ar":null,"fclass_jp":null,"fclass_ko":null,"fclass_vn":null,"fclass_tr":null,"fclass_id":null,"fclass_pl":null,"fclass_gr":null,"fclass_it":null,"fclass_nl":null,"fclass_se":null,"fclass_bd":null,"fclass_ua":null,"filename":"ECU.geojson"}},{"type":"Feature","geometry":{"type":"Polygon","coordinates":[[[611,2291],[610,2293],[608,2291],[606,2288],[605,2285],[607,2284],[610,2285],[611,2288],[611,2291]]]},"properties":{"featurecla":"Admin-0 country","scalerank":3,"labelrank":4,"sovereignt":"United Kingdom","sov_a3":"GB1","adm0_dif":1,"level":2,"type":"Dependency","tlc":"1","admin":"Pitcairn Islands","adm0_a3":"PCN","geou_dif":0,"geounit":"Pitcairn Islands","gu_a3":"PCN","su_dif":0,"subunit":"Pitcairn Islands","su_a3":"PCN","brk_diff":0,"name":"Pitcairn Is.","name_long":"Pitcairn Islands","brk_a3":"PCN","brk_name":"Pitcairn Is.","brk_group":null,"abbrev":"Pit. Is.","postal":"PN","formal_en":"Pitcairn, Henderson, Ducie and Oeno Islands","formal_fr":null,"name_ciawf":"Pitcairn Islands","note_adm0":"U.K.","note_brk":null,"name_sort":"Pitcairn Islands","name_alt":null,"mapcolor7":6,"mapcolor8":6,"mapcolor9":6,"mapcolor13":3,"pop_est":54,"pop_rank":1,"pop_year":2016,"gdp_md":0,"gdp_year":2016,"economy":"7. Least developed region","income_grp":"5. Low income","fips_10":"PC","iso_a2":"PN","iso_a2_eh":"PN","iso_a3":"PCN","iso_a3_eh":"PCN","iso_n3":"612","iso_n3_eh":"612","un_a3":"612","wb_a2":"-99","wb_a3":"-99","woe_id":23424918,"woe_id_eh":23424918,"woe_note":"Exact WOE match as country","adm0_iso":"PCN","adm0_diff":null,"adm0_tlc":"PCN","adm0_a3_us":"PCN","adm0_a3_fr":"PCN","adm0_a3_ru":"PCN","adm0_a3_es":"PCN","adm0_a3_cn":"PCN","adm0_a3_tw":"PCN","adm0_a3_in":"PCN","adm0_a3_np":"PCN","adm0_a3_pk":"PCN","adm0_a3_de":"PCN","adm0_a3_gb":"PCN","adm0_a3_br":"PCN","adm0_a3_il":"PCN","adm0_a3_ps":"PCN","adm0_a3_sa":"PCN","adm0_a3_eg":"PCN","adm0_a3_ma":"PCN","adm0_a3_pt":"PCN","adm0_a3_ar":"PCN","adm0_a3_jp":"PCN","adm0_a3_ko":"PCN","adm0_a3_vn":"PCN","adm0_a3_tr":"PCN","adm0_a3_id":"PCN","adm0_a3_pl":"PCN","adm0_a3_gr":"PCN","adm0_a3_it":"PCN","adm0_a3_nl":"PCN","adm0_a3_se":"PCN","adm0_a3_bd":"PCN","adm0_a3_ua":"PCN","adm0_a3_un":-99,"adm0_a3_wb":-99,"continent":"Oceania","region_un":"Oceania","subregion":"Polynesia","region_wb":"East Asia & Pacific","name_len":12,"long_len":16,"abbrev_len":8,"tiny":-99,"homepart":-99,"min_zoom":0,"min_label":5,"max_label":9,"label_x":-128.317536,"label_y":-24.364576,"ne_id":1159320729,"wikidataid":"Q35672","name_ar":"جزر بيتكيرن","name_bn":"পীটকেয়ার্ন দ্বীপপুঞ্জ","name_de":"Pitcairninseln","name_en":"Pitcairn Islands","name_es":"Islas Pitcairn","name_fa":"جزایر پیتکرن","name_fr":"Iles Pitcairn","name_el":"Νήσοι Πίτκερν","name_he":"פיטקרן","name_hi":"पिटकेर्न द्वीपसमूह","name_hu":"Pitcairn-szigetek","name_id":"Kepulauan Pitcairn","name_it":"Isole Pitcairn","name_ja":"ピトケアン諸島","name_ko":"핏케언 제도","name_nl":"Pitcairneilanden","name_pl":"Pitcairn","name_pt":"Ilhas Pitcairn","name_ru":"Острова Питкэрн","name_sv":"Pitcairnöarna","name_tr":"Pitcairn Adaları","name_uk":"Піткерн","name_ur":"جزائر پٹکیرن","name_vi":"Quần đảo Pitcairn","name_zh":"皮特凯恩群岛","name_zht":"皮特肯群島","fclass_iso":"Admin-0 dependency","tlc_diff":null,"fclass_tlc":"Admin-0 dependency","fclass_us":null,"fclass_fr":null,"fclass_ru":null,"fclass_es":null,"fclass_cn":null,"fclass_tw":null,"fclass_in":null,"fclass_np":null,"fclass_pk":null,"fclass_de":null,"fclass_gb":null,"fclass_br":null,"fclass_il":null,"fclass_ps":null,"fclass_sa":null,"fclass_eg":null,"fclass_ma":null,"fclass_pt":null,"fclass_ar":null,"fclass_jp":null,"fclass_ko":null,"fclass_vn":null,"fclass_tr":null,"fclass_id":null,"fclass_pl":null,"fclass_gr":null,"fclass_it":null,"fclass_nl":null,"fclass_se":null,"fclass_bd":null,"fclass_ua":null,"filename":"PCN.geojson"}}]}
